HST                     
1 20580U 90037B   26068.15977042  .00009063  00000+0  30023-3 0  9999
2 20580  28.4717  43.6133 0001837 120.9992 239.0785 15.29473555773239
STARLINK-35025          
1 65430U 25192AC  26068.71707285  .00021902  00000+0  75005-3 0  9999
2 65430  53.1606 232.5559 0000832  84.1219 275.9876 15.30172330 29381
